{
  "norad_id": 58336,
  "name": "LEMUR-2-JK0903EM1407",
  "history": [
    {
      "epoch": "2026-03-28T18:02:40.272864",
      "apogee_km": 427.08142792049875,
      "perigee_km": 419.8379994842744,
      "latitude_deg": 46.99186383110583,
      "longitude_deg": 85.77808096027002,
      "semi_major_axis_km": 6801.596713702386,
      "eccentricity": 0.00053248,
      "inclination_deg": 97.3899,
      "raan_deg": 176.2318,
      "arg_perigee_deg": 56.2344,
      "mean_anomaly_deg": 303.9413,
      "mean_motion_rev_day": 15.47698798
    },
    {
      "epoch": "2026-03-29T04:54:22.800384",
      "apogee_km": 426.9898634255869,
      "perigee_km": 419.72586690958724,
      "latitude_deg": -30.915411243046314,
      "longitude_deg": 129.22533376002684,
      "semi_major_axis_km": 6801.494865167587,
      "eccentricity": 0.000534,
      "inclination_deg": 97.39,
      "raan_deg": 176.6948,
      "arg_perigee_deg": 53.4758,
      "mean_anomaly_deg": 306.6983,
      "mean_motion_rev_day": 15.47733562
    }
  ]
}